0 COSMOS 2230
1 22307U 93001A   13281.49730154  .00000074  00000-0  63088-4 0  1380
2 22307 082.9381 114.4597 0025910 103.3308 317.2078 13.73419350 31113
0 COSMOS 2230
1 22307U 93001A   13282.66499684  .00000093  00000-0  83747-4 0  1396
2 22307 082.9380 113.5965 0025919 100.2581 330.4805 13.73419577 31272
0 COSMOS 2230
1 22307U 93001A   13283.68138205  .00000093  00000-0  83858-4 0  1403
2 22307 082.9379 112.8452 0025917 097.6003 315.6348 13.73419724 31416
0 COSMOS 2230
1 22307U 93001A   13286.10294839  .00000063  00000-0  50885-4 0  1422
2 22307 082.9378 111.0551 0025882 091.2067 048.2680 13.73420165 31742
0 COSMOS 2230
1 22307U 93001A   13287.12074367  .00000052  00000-0  39357-4 0  1437
2 22307 082.9377 110.3026 0025867 088.5554 040.3852 13.73420359 31887
0 COSMOS 2230
1 22307U 93001A   13288.14241515  .00000063  00000-0  51617-4 0  1447
2 22307 082.9378 109.5473 0025849 085.8661 051.6959 13.73420657 32024
0 COSMOS 2230
1 22307U 93001A   13289.36300525  .00000045  00000-0  32193-4 0  1458
2 22307 082.9380 108.6451 0025821 082.6456 326.5011 13.73420751 32196
0 COSMOS 2230
1 22307U 93001A   13290.44951844  .00000049  00000-0  36424-4 0  1461
2 22307 082.9382 107.8419 0025787 079.7674 298.4193 13.73420886 32347
0 COSMOS 2230
1 22307U 93001A   13291.62047325  .00000052  00000-0  39461-4 0  1471
2 22307 082.9384 106.9763 0025754 076.6768 327.8222 13.73420815 32505
0 COSMOS 2230
1 22307U 93001A   13292.64191359  .00000054  00000-0  41640-4 0  1486
2 22307 082.9385 106.2212 0025717 073.9647 338.0152 13.73420766 32649
0 COSMOS 2230
1 22307U 93001A   13294.04551138  .00000070  00000-0  58220-4 0  1498
2 22307 082.9386 105.1837 0025638 070.1885 077.7163 13.73420812 32838
0 COSMOS 2230
1 22307U 93001A   13295.41263920  .00000082  00000-0  71440-4 0  1503
2 22307 082.9386 104.1732 0025576 066.5367 357.0756 13.73420845 33026
